{"fetched_at":"2026-03-30T06:02:59Z","count":15439,"tles":[{"name":"STARLINK-2407","line1":"1 47822U 21018AM  26087.61456420  .00011143  00000+0  38760-3 0  9992","line2":"2 47822  53.1599 167.3856 0001369  71.8440 288.2709 15.30215748279455","category":"Starlink"}]}